{
  "norad_id": 61513,
  "name": "STARLINK-32030",
  "history": [
    {
      "epoch": "2026-03-28T21:52:26.849568Z",
      "apogee_km": 476.01485586703166,
      "perigee_km": 474.307836314988,
      "latitude_deg": -1.9566296719054558e-05,
      "longitude_deg": -101.14376209612723,
      "height_km": 475.81202397164094,
      "semi_major_axis_km": 6853.298346091009,
      "eccentricity": 0.00012454,
      "inclination_deg": 53.16,
      "raan_deg": 53.2932,
      "arg_perigee_deg": 73.142,
      "mean_anomaly_deg": 286.9717,
      "mean_motion_rev_day": 15.30217993
    },
    {
      "epoch": "2026-03-29T04:08:40.142112Z",
      "apogee_km": 476.0824530044483,
      "perigee_km": 474.5993603854404,
      "latitude_deg": -7.266219337523063e-06,
      "longitude_deg": 163.32814702588513,
      "height_km": 476.3917714501395,
      "semi_major_axis_km": 6853.477906694944,
      "eccentricity": 0.0001082,
      "inclination_deg": 53.1607,
      "raan_deg": 52.078,
      "arg_perigee_deg": 101.8634,
      "mean_anomaly_deg": 258.2488,
      "mean_motion_rev_day": 15.30157856
    },
    {
      "epoch": "2026-03-30T00:31:21.950112Z",
      "apogee_km": 476.1786162561639,
      "perigee_km": 474.22541463676225,
      "latitude_deg": 4.3554377522230074e-05,
      "longitude_deg": -147.12552088794956,
      "height_km": 476.5048077454436,
      "semi_major_axis_km": 6853.339015446463,
      "eccentricity": 0.0001425,
      "inclination_deg": 53.1611,
      "raan_deg": 48.1354,
      "arg_perigee_deg": 114.478,
      "mean_anomaly_deg": 245.637,
      "mean_motion_rev_day": 15.30204372
    },
    {
      "epoch": "2026-03-30T20:54:06.498720Z",
      "apogee_km": 476.70765618908536,
      "perigee_km": 473.97339279591415,
      "latitude_deg": -5.215207356208404e-05,
      "longitude_deg": -97.59534789488094,
      "height_km": 476.63314589360726,
      "semi_major_axis_km": 6853.4775244924995,
      "eccentricity": 0.00019948,
      "inclination_deg": 53.1613,
      "raan_deg": 44.1882,
      "arg_perigee_deg": 106.808,
      "mean_anomaly_deg": 253.3139,
      "mean_motion_rev_day": 15.30157984
    },
    {
      "epoch": "2026-03-31T20:24:52.977024Z",
      "apogee_km": 476.17448138197506,
      "perigee_km": 473.9978976969778,
      "latitude_deg": 1.4633583794274665e-05,
      "longitude_deg": -95.8012973231379,
      "height_km": 475.5985100928763,
      "semi_major_axis_km": 6853.223189539476,
      "eccentricity": 0.0001588,
      "inclination_deg": 53.1612,
      "raan_deg": 39.6415,
      "arg_perigee_deg": 69.248,
      "mean_anomaly_deg": 290.8691,
      "mean_motion_rev_day": 15.30243165
    },
    {
      "epoch": "2026-04-01T13:39:27.915840Z",
      "apogee_km": 476.26022329309853,
      "perigee_km": 474.14802355885877,
      "latitude_deg": -6.1031481087020114e-05,
      "longitude_deg": 1.509722389480017,
      "height_km": 475.86461376272786,
      "semi_major_axis_km": 6853.341123425978,
      "eccentricity": 0.0001541,
      "inclination_deg": 53.1631,
      "raan_deg": 36.3063,
      "arg_perigee_deg": 76.9977,
      "mean_anomaly_deg": 283.1195,
      "mean_motion_rev_day": 15.30203666
    },
    {
      "epoch": "2026-04-02T13:10:15.493152Z",
      "apogee_km": 476.30096491496715,
      "perigee_km": 474.10186568426616,
      "latitude_deg": 2.8210627069128562e-05,
      "longitude_deg": 3.292197521976512,
      "height_km": 476.21218198384474,
      "semi_major_axis_km": 6853.338415299617,
      "eccentricity": 0.00016044,
      "inclination_deg": 53.1615,
      "raan_deg": 31.7526,
      "arg_perigee_deg": 95.8981,
      "mean_anomaly_deg": 264.2203,
      "mean_motion_rev_day": 15.30204573
    },
    {
      "epoch": "2026-04-03T18:57:16.585056Z",
      "apogee_km": 476.21806200922856,
      "perigee_km": 474.44164340100815,
      "latitude_deg": 7.323196240789851e-05,
      "longitude_deg": -90.45038877392608,
      "height_km": 476.33913998068255,
      "semi_major_axis_km": 6853.466852705118,
      "eccentricity": 0.0001296,
      "inclination_deg": 53.1611,
      "raan_deg": 25.9877,
      "arg_perigee_deg": 97.1884,
      "mean_anomaly_deg": 262.9265,
      "mean_motion_rev_day": 15.30161558
    },
    {
      "epoch": "2026-04-04T12:11:51.527328Z",
      "apogee_km": 475.8472036833091,
      "perigee_km": 474.573577604232,
      "latitude_deg": -2.6917595742952613e-05,
      "longitude_deg": 6.86239684431151,
      "height_km": 476.2291105494304,
      "semi_major_axis_km": 6853.34739064377,
      "eccentricity": 9.292e-05,
      "inclination_deg": 53.161,
      "raan_deg": 22.6543,
      "arg_perigee_deg": 100.8666,
      "mean_anomaly_deg": 259.2439,
      "mean_motion_rev_day": 15.30201567
    },
    {
      "epoch": "2026-04-05T11:42:40.032576Z",
      "apogee_km": 475.4302000983089,
      "perigee_km": 475.12138531786877,
      "latitude_deg": -4.430554965443022e-05,
      "longitude_deg": 8.644613296670428,
      "height_km": 476.1409011785423,
      "semi_major_axis_km": 6853.412792708088,
      "eccentricity": 2.253e-05,
      "inclination_deg": 53.1599,
      "raan_deg": 18.1043,
      "arg_perigee_deg": 283.0419,
      "mean_anomaly_deg": 77.0556,
      "mean_motion_rev_day": 15.30179663
    },
    {
      "epoch": "2026-04-06T01:49:08.999904Z",
      "apogee_km": 475.8241643148549,
      "perigee_km": 474.59083643856593,
      "latitude_deg": 3.769137791428649e-05,
      "longitude_deg": 153.71537920170107,
      "height_km": 476.00939719459205,
      "semi_major_axis_km": 6853.34450037671,
      "eccentricity": 8.998e-05,
      "inclination_deg": 53.1601,
      "raan_deg": 15.3751,
      "arg_perigee_deg": 80.9782,
      "mean_anomaly_deg": 279.1321,
      "mean_motion_rev_day": 15.30202535
    },
    {
      "epoch": "2026-04-07T01:19:56.396640Z",
      "apogee_km": 475.87941153795873,
      "perigee_km": 474.55260239581094,
      "latitude_deg": -3.104196528048011e-05,
      "longitude_deg": 155.49908773174272,
      "height_km": 476.07017098568093,
      "semi_major_axis_km": 6853.353006966885,
      "eccentricity": 9.68e-05,
      "inclination_deg": 53.16,
      "raan_deg": 10.822,
      "arg_perigee_deg": 86.1688,
      "mean_anomaly_deg": 273.9423,
      "mean_motion_rev_day": 15.30199686
    },
    {
      "epoch": "2026-04-07T18:34:31.867680Z",
      "apogee_km": 475.90047090181724,
      "perigee_km": 474.5914747540064,
      "latitude_deg": 2.410404701103049e-06,
      "longitude_deg": -107.19303795387306,
      "height_km": 476.0492170296345,
      "semi_major_axis_km": 6853.3829728279115,
      "eccentricity": 9.55e-05,
      "inclination_deg": 53.1609,
      "raan_deg": 7.4858,
      "arg_perigee_deg": 81.6219,
      "mean_anomaly_deg": 278.489,
      "mean_motion_rev_day": 15.3018965
    },
    {
      "epoch": "2026-04-08T10:15:03.672576Z",
      "apogee_km": 476.19230250370674,
      "perigee_km": 474.2421120304871,
      "latitude_deg": -1.8146052166234842e-05,
      "longitude_deg": 13.996554384844018,
      "height_km": 476.19824249535833,
      "semi_major_axis_km": 6853.354207267097,
      "eccentricity": 0.00014228,
      "inclination_deg": 53.1625,
      "raan_deg": 4.4517,
      "arg_perigee_deg": 94.8767,
      "mean_anomaly_deg": 265.2396,
      "mean_motion_rev_day": 15.30199284
    },
    {
      "epoch": "2026-04-09T00:21:32.278752Z",
      "apogee_km": 475.9481345336335,
      "perigee_km": 474.5104353543775,
      "latitude_deg": 4.448045127576778e-05,
      "longitude_deg": 159.06591406671004,
      "height_km": 475.98329071406454,
      "semi_major_axis_km": 6853.366284944005,
      "eccentricity": 0.00010489,
      "inclination_deg": 53.1623,
      "raan_deg": 1.7196,
      "arg_perigee_deg": 78.3923,
      "mean_anomaly_deg": 281.7196,
      "mean_motion_rev_day": 15.30195239
    },
    {
      "epoch": "2026-04-09T23:52:19.955424Z",
      "apogee_km": 475.86864761179913,
      "perigee_km": 474.54554100095174,
      "latitude_deg": 6.659273983946064e-05,
      "longitude_deg": 160.8496202924063,
      "height_km": 475.926466255338,
      "semi_major_axis_km": 6853.344094306375,
      "eccentricity": 9.653e-05,
      "inclination_deg": 53.162,
      "raan_deg": 357.1676,
      "arg_perigee_deg": 74.268,
      "mean_anomaly_deg": 285.8428,
      "mean_motion_rev_day": 15.30202671
    },
    {
      "epoch": "2026-04-11T02:31:15.164832Z",
      "apogee_km": 476.0898903409998,
      "perigee_km": 474.4357537599499,
      "latitude_deg": 4.737822774093886e-06,
      "longitude_deg": 114.86881048788264,
      "height_km": 476.1320117766368,
      "semi_major_axis_km": 6853.3998220504745,
      "eccentricity": 0.00012068,
      "inclination_deg": 53.1625,
      "raan_deg": 352.0113,
      "arg_perigee_deg": 87.9743,
      "mean_anomaly_deg": 272.1396,
      "mean_motion_rev_day": 15.30184007
    },
    {
      "epoch": "2026-04-12T22:24:43.921152Z",
      "apogee_km": 476.1006001359192,
      "perigee_km": 474.38999591433185,
      "latitude_deg": -5.074903063412406e-05,
      "longitude_deg": 166.2022967708626,
      "height_km": 476.1801351109223,
      "semi_major_axis_km": 6853.382298025125,
      "eccentricity": 0.0001248,
      "inclination_deg": 53.1619,
      "raan_deg": 343.5172,
      "arg_perigee_deg": 92.4474,
      "mean_anomaly_deg": 267.6669,
      "mean_motion_rev_day": 15.30189876
    },
    {
      "epoch": "2026-04-14T21:26:20.115168Z",
      "apogee_km": 476.2170717514564,
      "perigee_km": 474.2679706156323,
      "latitude_deg": -1.7059928643543675e-05,
      "longitude_deg": 169.7666965855192,
      "height_km": 476.67488194156743,
      "semi_major_axis_km": 6853.379521183544,
      "eccentricity": 0.0001422,
      "inclination_deg": 53.1627,
      "raan_deg": 334.4137,
      "arg_perigee_deg": 123.2189,
      "mean_anomaly_deg": 236.8948,
      "mean_motion_rev_day": 15.30190806
    }
  ]
}